TEVEL2-1                
1 63217U 25052H   26068.64782323  .00020683  00000+0  70600-3 0  9994
2 63217  97.3991 324.7682 0004767 104.8919 255.2849 15.30341923 54855
STARLINK-35535          
1 66342U 25253Z   26068.42926094  .00042673  00000+0  15502-2 0  9992
2 66342  42.9996 214.0608 0003474 290.0123  70.0355 15.27599353 20201
